CCSDS_OMM_VERS = 2.0
CREATION_DATE  = 
ORIGINATOR     = 

OBJECT_NAME    = STARLINK-36047
OBJECT_ID      = 2025-278E
CENTER_NAME    = EARTH
REF_FRAME      = TEME
TIME_SYSTEM    = UTC
MEAN_ELEMENT_THEORY = SGP/SGP4

EPOCH          = 2025-12-20T06:00:02.999808
MEAN_MOTION    = 15.63546348
ECCENTRICITY   = .00012672
INCLINATION    = 42.9995
RA_OF_ASC_NODE = 206.4585
ARG_OF_PERICENTER = 259.1390
MEAN_ANOMALY   = 331.1357

EPHEMERIS_TYPE = 0
CLASSIFICATION_TYPE = U
NORAD_CAT_ID   = 66795
ELEMENT_SET_NO = 999
REV_AT_EPOCH   = 406
BSTAR          = -.23697402E-1
MEAN_MOTION_DOT = -.1987935E-1
MEAN_MOTION_DDOT = 0

CCSDS_OMM_VERS = 2.0
CREATION_DATE  = 
ORIGINATOR     = 

OBJECT_NAME    = STARLINK-35964
OBJECT_ID      = 2025-278F
CENTER_NAME    = EARTH
REF_FRAME      = TEME
TIME_SYSTEM    = UTC
MEAN_ELEMENT_THEORY = SGP/SGP4

EPOCH          = 2025-12-20T00:00:02.000160
MEAN_MOTION    = 15.80836058
ECCENTRICITY   = .00015307
INCLINATION    = 42.9922
RA_OF_ASC_NODE = 206.4774
ARG_OF_PERICENTER = 267.9321
MEAN_ANOMALY   = 215.2209

EPHEMERIS_TYPE = 0
CLASSIFICATION_TYPE = U
NORAD_CAT_ID   = 66796
ELEMENT_SET_NO = 999
REV_AT_EPOCH   = 396
BSTAR          = .35276753E-3
MEAN_MOTION_DOT = .70367E-3
MEAN_MOTION_DDOT = 0

CCSDS_OMM_VERS = 2.0
CREATION_DATE  = 
ORIGINATOR     = 

OBJECT_NAME    = STARLINK-36099
OBJECT_ID      = 2025-278G
CENTER_NAME    = EARTH
REF_FRAME      = TEME
TIME_SYSTEM    = UTC
MEAN_ELEMENT_THEORY = SGP/SGP4

EPOCH          = 2025-12-20T06:00:02.999808
MEAN_MOTION    = 15.63546132
ECCENTRICITY   = .00013408
INCLINATION    = 42.9995
RA_OF_ASC_NODE = 206.4487
ARG_OF_PERICENTER = 260.7557
MEAN_ANOMALY   = 333.3551

EPHEMERIS_TYPE = 0
CLASSIFICATION_TYPE = U
NORAD_CAT_ID   = 66797
ELEMENT_SET_NO = 999
REV_AT_EPOCH   = 422
BSTAR          = -.2372867E-1
MEAN_MOTION_DOT = -.1990278E-1
MEAN_MOTION_DDOT = 0

CCSDS_OMM_VERS = 2.0
CREATION_DATE  = 
ORIGINATOR     = 

OBJECT_NAME    = STARLINK-36041
OBJECT_ID      = 2025-278H
CENTER_NAME    = EARTH
REF_FRAME      = TEME
TIME_SYSTEM    = UTC
MEAN_ELEMENT_THEORY = SGP/SGP4

EPOCH          = 2025-12-20T06:00:02.999808
MEAN_MOTION    = 15.63552343
ECCENTRICITY   = .00013819
INCLINATION    = 42.9996
RA_OF_ASC_NODE = 206.4432
ARG_OF_PERICENTER = 258.9621
MEAN_ANOMALY   = 337.0599

EPHEMERIS_TYPE = 0
CLASSIFICATION_TYPE = U
NORAD_CAT_ID   = 66798
ELEMENT_SET_NO = 999
REV_AT_EPOCH   = 400
BSTAR          = -.23809275E-1
MEAN_MOTION_DOT = -.1996676E-1
MEAN_MOTION_DDOT = 0

CCSDS_OMM_VERS = 2.0
CREATION_DATE  = 
ORIGINATOR     = 

OBJECT_NAME    = STARLINK-36044
OBJECT_ID      = 2025-278J
CENTER_NAME    = EARTH
REF_FRAME      = TEME
TIME_SYSTEM    = UTC
MEAN_ELEMENT_THEORY = SGP/SGP4

EPOCH          = 2025-12-20T06:00:02.999808
MEAN_MOTION    = 15.63546792
ECCENTRICITY   = .00013449
INCLINATION    = 42.9996
RA_OF_ASC_NODE = 206.4392
ARG_OF_PERICENTER = 256.6064
MEAN_ANOMALY   = 341.3358

EPHEMERIS_TYPE = 0
CLASSIFICATION_TYPE = U
NORAD_CAT_ID   = 66799
ELEMENT_SET_NO = 999
REV_AT_EPOCH   = 416
BSTAR          = -.23716797E-1
MEAN_MOTION_DOT = -.1989453E-1
MEAN_MOTION_DDOT = 0

CCSDS_OMM_VERS = 2.0
CREATION_DATE  = 
ORIGINATOR     = 

OBJECT_NAME    = STARLINK-35996
OBJECT_ID      = 2025-278K
CENTER_NAME    = EARTH
REF_FRAME      = TEME
TIME_SYSTEM    = UTC
MEAN_ELEMENT_THEORY = SGP/SGP4

EPOCH          = 2025-12-20T06:00:02.999808
MEAN_MOTION    = 15.63545255
ECCENTRICITY   = .00012754
INCLINATION    = 42.9992
RA_OF_ASC_NODE = 206.4291
ARG_OF_PERICENTER = 259.5583
MEAN_ANOMALY   = 342.2201

EPHEMERIS_TYPE = 0
CLASSIFICATION_TYPE = U
NORAD_CAT_ID   = 66800
ELEMENT_SET_NO = 999
REV_AT_EPOCH   = 395
BSTAR          = -.23679767E-1
MEAN_MOTION_DOT = -.1986567E-1
MEAN_MOTION_DDOT = 0

CCSDS_OMM_VERS = 2.0
CREATION_DATE  = 
ORIGINATOR     = 

OBJECT_NAME    = STARLINK-36080
OBJECT_ID      = 2025-278L
CENTER_NAME    = EARTH
REF_FRAME      = TEME
TIME_SYSTEM    = UTC
MEAN_ELEMENT_THEORY = SGP/SGP4

EPOCH          = 2025-12-20T06:00:02.999808
MEAN_MOTION    = 15.63547221
ECCENTRICITY   = .00014573
INCLINATION    = 42.9992
RA_OF_ASC_NODE = 206.4040
ARG_OF_PERICENTER = 259.4596
MEAN_ANOMALY   = 351.9024

EPHEMERIS_TYPE = 0
CLASSIFICATION_TYPE = U
NORAD_CAT_ID   = 66801
ELEMENT_SET_NO = 999
REV_AT_EPOCH   = 416
BSTAR          = -.23730836E-1
MEAN_MOTION_DOT = -.1990601E-1
MEAN_MOTION_DDOT = 0

CCSDS_OMM_VERS = 2.0
CREATION_DATE  = 
ORIGINATOR     = 

OBJECT_NAME    = STARLINK-35604
OBJECT_ID      = 2025-278M
CENTER_NAME    = EARTH
REF_FRAME      = TEME
TIME_SYSTEM    = UTC
MEAN_ELEMENT_THEORY = SGP/SGP4

EPOCH          = 2025-12-20T06:00:02.999808
MEAN_MOTION    = 15.63549401
ECCENTRICITY   = .00014479
INCLINATION    = 42.9996
RA_OF_ASC_NODE = 206.4334
ARG_OF_PERICENTER = 261.7800
MEAN_ANOMALY   = 338.0791

EPHEMERIS_TYPE = 0
CLASSIFICATION_TYPE = U
NORAD_CAT_ID   = 66802
ELEMENT_SET_NO = 999
REV_AT_EPOCH   = 416
BSTAR          = -.23781135E-1
MEAN_MOTION_DOT = -.1994449E-1
MEAN_MOTION_DDOT = 0

CCSDS_OMM_VERS = 2.0
CREATION_DATE  = 
ORIGINATOR     = 

OBJECT_NAME    = STARLINK-35565
OBJECT_ID      = 2025-278N
CENTER_NAME    = EARTH
REF_FRAME      = TEME
TIME_SYSTEM    = UTC
MEAN_ELEMENT_THEORY = SGP/SGP4

EPOCH          = 2025-12-20T06:00:02.999808
MEAN_MOTION    = 15.63546972
ECCENTRICITY   = .00013357
INCLINATION    = 42.9994
RA_OF_ASC_NODE = 206.4237
ARG_OF_PERICENTER = 258.6424
MEAN_ANOMALY   = 345.0510

EPHEMERIS_TYPE = 0
CLASSIFICATION_TYPE = U
NORAD_CAT_ID   = 66803
ELEMENT_SET_NO = 999
REV_AT_EPOCH   = 425
BSTAR          = -.23707256E-1
MEAN_MOTION_DOT = -.1988756E-1
MEAN_MOTION_DDOT = 0

CCSDS_OMM_VERS = 2.0
CREATION_DATE  = 
ORIGINATOR     = 

OBJECT_NAME    = STARLINK-36038
OBJECT_ID      = 2025-278P
CENTER_NAME    = EARTH
REF_FRAME      = TEME
TIME_SYSTEM    = UTC
MEAN_ELEMENT_THEORY = SGP/SGP4

EPOCH          = 2025-12-20T06:00:02.999808
MEAN_MOTION    = 15.63543805
ECCENTRICITY   = .00013393
INCLINATION    = 42.9990
RA_OF_ASC_NODE = 206.4196
ARG_OF_PERICENTER = 257.0163
MEAN_ANOMALY   = 348.5952

EPHEMERIS_TYPE = 0
CLASSIFICATION_TYPE = U
NORAD_CAT_ID   = 66804
ELEMENT_SET_NO = 999
REV_AT_EPOCH   = 416
BSTAR          = -.23640703E-1
MEAN_MOTION_DOT = -.1983635E-1
MEAN_MOTION_DDOT = 0

CCSDS_OMM_VERS = 2.0
CREATION_DATE  = 
ORIGINATOR     = 

OBJECT_NAME    = STARLINK-36049
OBJECT_ID      = 2025-278Q
CENTER_NAME    = EARTH
REF_FRAME      = TEME
TIME_SYSTEM    = UTC
MEAN_ELEMENT_THEORY = SGP/SGP4

EPOCH          = 2025-12-20T06:00:02.999808
MEAN_MOTION    = 15.63546326
ECCENTRICITY   = .00014566
INCLINATION    = 42.9995
RA_OF_ASC_NODE = 206.4092
ARG_OF_PERICENTER = 260.2532
MEAN_ANOMALY   = 349.1938

EPHEMERIS_TYPE = 0
CLASSIFICATION_TYPE = U
NORAD_CAT_ID   = 66805
ELEMENT_SET_NO = 999
REV_AT_EPOCH   = 416
BSTAR          = -.23737944E-1
MEAN_MOTION_DOT = -.1991061E-1
MEAN_MOTION_DDOT = 0

CCSDS_OMM_VERS = 2.0
CREATION_DATE  = 
ORIGINATOR     = 

OBJECT_NAME    = STARLINK-36069
OBJECT_ID      = 2025-278R
CENTER_NAME    = EARTH
REF_FRAME      = TEME
TIME_SYSTEM    = UTC
MEAN_ELEMENT_THEORY = SGP/SGP4

EPOCH          = 2025-12-20T06:00:02.999808
MEAN_MOTION    = 15.63548572
ECCENTRICITY   = .00014416
INCLINATION    = 42.9994
RA_OF_ASC_NODE = 206.4142
ARG_OF_PERICENTER = 259.3638
MEAN_ANOMALY   = 348.1624

EPHEMERIS_TYPE = 0
CLASSIFICATION_TYPE = U
NORAD_CAT_ID   = 66806
ELEMENT_SET_NO = 999
REV_AT_EPOCH   = 395
BSTAR          = -.23743001E-1
MEAN_MOTION_DOT = -.1991579E-1
MEAN_MOTION_DDOT = 0

