STARLINK-36047          
1 66795U 25278E   25354.25003472 -.01987935  00000+0 -23697-1 0  9990
2 66795  42.9995 206.4585 0001267 259.1390 331.1357 15.63546348  4066
STARLINK-35964          
1 66796U 25278F   25354.00002315  .00070367  00000+0  35277-3 0  9997
2 66796  42.9922 206.4774 0001530 267.9321 215.2209 15.80836058  3966
STARLINK-36099          
1 66797U 25278G   25354.25003472 -.01990278  00000+0 -23729-1 0  9992
2 66797  42.9995 206.4487 0001340 260.7557 333.3551 15.63546132  4223
STARLINK-36041          
1 66798U 25278H   25354.25003472 -.01996676  00000+0 -23809-1 0  9990
2 66798  42.9996 206.4432 0001381 258.9621 337.0599 15.63552343  4001
STARLINK-36044          
1 66799U 25278J   25354.25003472 -.01989453  00000+0 -23717-1 0  9994
2 66799  42.9996 206.4392 0001344 256.6064 341.3358 15.63546792  4161
STARLINK-35996          
1 66800U 25278K   25354.25003472 -.01986567  00000+0 -23680-1 0  9999
2 66800  42.9992 206.4291 0001275 259.5583 342.2201 15.63545255  3955
STARLINK-36080          
1 66801U 25278L   25354.25003472 -.01990601  00000+0 -23731-1 0  9991
2 66801  42.9992 206.4040 0001457 259.4596 351.9024 15.63547221  4162
STARLINK-35604          
1 66802U 25278M   25354.25003472 -.01994449  00000+0 -23781-1 0  9991
2 66802  42.9996 206.4334 0001447 261.7800 338.0791 15.63549401  4165
STARLINK-35565          
1 66803U 25278N   25354.25003472 -.01988756  00000+0 -23707-1 0  9994
2 66803  42.9994 206.4237 0001335 258.6424 345.0510 15.63546972  4256
STARLINK-36038          
1 66804U 25278P   25354.25003472 -.01983635  00000+0 -23641-1 0  9993
2 66804  42.9990 206.4196 0001339 257.0163 348.5952 15.63543805  4164
STARLINK-36049          
1 66805U 25278Q   25354.25003472 -.01991061  00000+0 -23738-1 0  9993
2 66805  42.9995 206.4092 0001456 260.2532 349.1938 15.63546326  4163
STARLINK-36069          
1 66806U 25278R   25354.25003472 -.01991579  00000+0 -23743-1 0  9994
2 66806  42.9994 206.4142 0001441 259.3638 348.1624 15.63548572  3951
